QIANFAN-17              
1 60395U 24140S   26019.65483487  .00000151  00000+0  21469-3 0  9998
2 60395  88.9790 295.5210 0016663  93.9873 266.3183 13.50986602 73257
QIANFAN-18              
1 60396U 24140T   26019.56017732  .00000146  00000+0  20671-3 0  9993
2 60396  88.9783 295.0616 0016108  78.6806 281.6154 13.50986489 72637
QIANFAN-19              
1 61552U 24185A   26019.64843408  .00000423  00000+0  21396-3 0  9996
2 61552  88.9784  73.5994 0007468 165.4561 194.6842 14.14336470 75026
QIANFAN-20              
1 61553U 24185B   26019.61448443  .00000309  00000+0  17110-3 0  9996
2 61553  88.9783  73.9654 0004956 201.5056 158.5921 14.08882979 74820
QIANFAN-21              
1 61554U 24185C   26019.59178507  .00000558  00000+0  24300-3 0  9990
2 61554  88.9699  72.5475 0008899 231.0414 128.9986 14.22661634 75359
QIANFAN-22              
1 61555U 24185D   26019.61118507  .00000127  00000+0  98032-4 0  9994
2 61555  88.9768  75.0993 0004964 225.4128 134.6638 13.86317797 74183
QIANFAN-23              
1 61556U 24185E   26019.64110689  .00000476  00000+0  23262-3 0  9990
2 61556  88.9776  73.3919 0007717 177.4674 182.6555 14.16332278 75113
QIANFAN-24              
1 61557U 24185F   26019.63285214  .00000319  00000+0  13295-3 0  9998
2 61557  88.9758  72.7358 0010161 162.2499 197.9051 14.23861718 75415
